STARLINK-35436          
1 65932U 25225Y   26024.23848905  .00015792  00000+0  54503-3 0  9997
2 65932  53.1604  12.0590 0001236  74.1962 285.9175 15.30148073 17607
STARLINK-35192          
1 65933U 25225Z   26024.66516883  .00009164  00000+0  32108-3 0  9995
2 65933  53.1614  10.4591 0001156 103.9243 256.1887 15.30206791 17664
STARLINK-33921          
1 65934U 25225AA  26024.95060632  .00042686  00000+0  14441-2 0  9999
2 65934  53.1620   8.6815 0002376  91.4389 268.6884 15.30221018 16828
STARLINK-35155          
1 65935U 25225AB  26024.91378230  .00033662  00000+0  11430-2 0  9991
2 65935  53.1596   9.1677 0001985  90.3220 269.8008 15.30213965 16812
STARLINK-35161          
1 65936U 25225AC  26024.92328081  .00047722  00000+0  16116-2 0  9990
2 65936  53.1611   9.2252 0001600 109.7219 250.3954 15.30229244 16810
STARLINK-35473          
1 65937U 25225AD  26024.65885435  .00031945  00000+0  10859-2 0  9990
2 65937  53.1615  10.4177 0001526  88.9347 271.1828 15.30203789 16774
STARLINK-34849          
1 66005U 25232A   26024.79671443  .00038863  00000+0  13165-2 0  9991
2 66005  53.1594 307.9203 0001589  78.5310 281.5869 15.30222911 16706
STARLINK-35336          
1 66006U 25232B   26024.81559550  .00063643  00000+0  21357-2 0  9995
2 66006  53.1578 307.3208 0001294 124.1194 235.9929 15.30304337 16713
STARLINK-35196          
1 66007U 25232C   26024.77033360  .00045356  00000+0  15330-2 0  9992
2 66007  53.1611 307.7520 0000959  70.7800 289.3304 15.30225566 16705
STARLINK-35236          
1 66008U 25232D   26024.79249537  .00039135  00000+0  13253-2 0  9990
2 66008  53.1591 307.8858 0004243 314.5106  45.5548 15.30222708 16691
STARLINK-35276          
1 66009U 25232E   26024.52172714  .00058395  00000+0  19650-2 0  9990
2 66009  53.1596 309.0453 0002506 297.1699  62.9047 15.30253391 16650
STARLINK-35297          
1 66010U 25232F   26024.80515724  .00054387  00000+0  18333-2 0  9999
2 66010  53.1570 307.9661 0001335 105.3468 254.7680 15.30230198 16705
STARLINK-35256          
1 66011U 25232G   26024.76400245  .00035918  00000+0  12183-2 0  9992
2 66011  53.1606 307.7074 0001179 101.7838 258.3295 15.30217585 16717
STARLINK-35293          
1 66012U 25232H   26024.62703168  .00031468  00000+0  10694-2 0  9999
2 66012  53.1610 308.2748 0001499 255.8665 104.2169 15.30221360 16693
STARLINK-35307          
1 66013U 25232J   26024.07192459  .00067446  00000+0  22699-2 0  9997
2 66013  53.1587 311.2131 0001469  94.1014 266.0155 15.30182704 16607
STARLINK-35395          
1 66014U 25232K   26024.90729939 -.00005097  00000+0 -15999-3 0  9991
2 66014  53.1589 307.1836 0001580  11.3087 348.7949 15.30216674 16738
