[{"OBJECT_NAME":"STARLINK-35436","OBJECT_ID":"2025-225Y","EPOCH":"2026-01-24T05:43:25.453920","MEAN_MOTION":15.30148073,"ECCENTRICITY":0.0001236,"INCLINATION":53.1604,"RA_OF_ASC_NODE":12.059,"ARG_OF_PERICENTER":74.1962,"MEAN_ANOMALY":285.9175,"EPHEMERIS_TYPE":0,"CLASSIFICATION_TYPE":"U","NORAD_CAT_ID":65932,"ELEMENT_SET_NO":999,"REV_AT_EPOCH":1760,"BSTAR":0.00054503,"MEAN_MOTION_DOT":0.00015792,"MEAN_MOTION_DDOT":0},{"OBJECT_NAME":"STARLINK-35192","OBJECT_ID":"2025-225Z","EPOCH":"2026-01-24T15:57:50.586912","MEAN_MOTION":15.30206791,"ECCENTRICITY":0.00011564,"INCLINATION":53.1614,"RA_OF_ASC_NODE":10.4591,"ARG_OF_PERICENTER":103.9243,"MEAN_ANOMALY":256.1887,"EPHEMERIS_TYPE":0,"CLASSIFICATION_TYPE":"U","NORAD_CAT_ID":65933,"ELEMENT_SET_NO":999,"REV_AT_EPOCH":1766,"BSTAR":0.00032108293,"MEAN_MOTION_DOT":9.164e-5,"MEAN_MOTION_DDOT":0},{"OBJECT_NAME":"STARLINK-33921","OBJECT_ID":"2025-225AA","EPOCH":"2026-01-24T22:48:52.386048","MEAN_MOTION":15.30221018,"ECCENTRICITY":0.0002376,"INCLINATION":53.162,"RA_OF_ASC_NODE":8.6815,"ARG_OF_PERICENTER":91.4389,"MEAN_ANOMALY":268.6884,"EPHEMERIS_TYPE":0,"CLASSIFICATION_TYPE":"U","NORAD_CAT_ID":65934,"ELEMENT_SET_NO":999,"REV_AT_EPOCH":1682,"BSTAR":0.0014441085,"MEAN_MOTION_DOT":0.00042686,"MEAN_MOTION_DDOT":0},{"OBJECT_NAME":"STARLINK-35155","OBJECT_ID":"2025-225AB","EPOCH":"2026-01-24T21:55:50.790720","MEAN_MOTION":15.30213965,"ECCENTRICITY":0.00019859,"INCLINATION":53.1596,"RA_OF_ASC_NODE":9.1677,"ARG_OF_PERICENTER":90.322,"MEAN_ANOMALY":269.8008,"EPHEMERIS_TYPE":0,"CLASSIFICATION_TYPE":"U","NORAD_CAT_ID":65935,"ELEMENT_SET_NO":999,"REV_AT_EPOCH":1681,"BSTAR":0.0011430017,"MEAN_MOTION_DOT":0.00033662,"MEAN_MOTION_DDOT":0},{"OBJECT_NAME":"STARLINK-35161","OBJECT_ID":"2025-225AC","EPOCH":"2026-01-24T22:09:31.461984","MEAN_MOTION":15.30229244,"ECCENTRICITY":0.00016,"INCLINATION":53.1611,"RA_OF_ASC_NODE":9.2252,"ARG_OF_PERICENTER":109.7219,"MEAN_ANOMALY":250.3954,"EPHEMERIS_TYPE":0,"CLASSIFICATION_TYPE":"U","NORAD_CAT_ID":65936,"ELEMENT_SET_NO":999,"REV_AT_EPOCH":1681,"BSTAR":0.0016115995,"MEAN_MOTION_DOT":0.00047722,"MEAN_MOTION_DDOT":0},{"OBJECT_NAME":"STARLINK-35473","OBJECT_ID":"2025-225AD","EPOCH":"2026-01-24T15:48:45.015840","MEAN_MOTION":15.30203789,"ECCENTRICITY":0.00015264,"INCLINATION":53.1615,"RA_OF_ASC_NODE":10.4177,"ARG_OF_PERICENTER":88.9347,"MEAN_ANOMALY":271.1828,"EPHEMERIS_TYPE":0,"CLASSIFICATION_TYPE":"U","NORAD_CAT_ID":65937,"ELEMENT_SET_NO":999,"REV_AT_EPOCH":1677,"BSTAR":0.0010859406,"MEAN_MOTION_DOT":0.00031945,"MEAN_MOTION_DDOT":0},{"OBJECT_NAME":"STARLINK-34849","OBJECT_ID":"2025-232A","EPOCH":"2026-01-24T19:07:16.126752","MEAN_MOTION":15.30222911,"ECCENTRICITY":0.00015895,"INCLINATION":53.1594,"RA_OF_ASC_NODE":307.9203,"ARG_OF_PERICENTER":78.531,"MEAN_ANOMALY":281.5869,"EPHEMERIS_TYPE":0,"CLASSIFICATION_TYPE":"U","NORAD_CAT_ID":66005,"ELEMENT_SET_NO":999,"REV_AT_EPOCH":1670,"BSTAR":0.0013164798,"MEAN_MOTION_DOT":0.00038863,"MEAN_MOTION_DDOT":0},{"OBJECT_NAME":"STARLINK-35336","OBJECT_ID":"2025-232B","EPOCH":"2026-01-24T19:34:27.451200","MEAN_MOTION":15.30304337,"ECCENTRICITY":0.00012943,"INCLINATION":53.1578,"RA_OF_ASC_NODE":307.3208,"ARG_OF_PERICENTER":124.1194,"MEAN_ANOMALY":235.9929,"EPHEMERIS_TYPE":0,"CLASSIFICATION_TYPE":"U","NORAD_CAT_ID":66006,"ELEMENT_SET_NO":999,"REV_AT_EPOCH":1671,"BSTAR":0.0021356803,"MEAN_MOTION_DOT":0.00063643,"MEAN_MOTION_DDOT":0},{"OBJECT_NAME":"STARLINK-35196","OBJECT_ID":"2025-232C","EPOCH":"2026-01-24T18:29:16.823040","MEAN_MOTION":15.30225566,"ECCENTRICITY":9.591e-5,"INCLINATION":53.1611,"RA_OF_ASC_NODE":307.752,"ARG_OF_PERICENTER":70.78,"MEAN_ANOMALY":289.3304,"EPHEMERIS_TYPE":0,"CLASSIFICATION_TYPE":"U","NORAD_CAT_ID":66007,"ELEMENT_SET_NO":999,"REV_AT_EPOCH":1670,"BSTAR":0.0015329741,"MEAN_MOTION_DOT":0.00045356,"MEAN_MOTION_DDOT":0},{"OBJECT_NAME":"STARLINK-35236","OBJECT_ID":"2025-232D","EPOCH":"2026-01-24T19:01:11.599968","MEAN_MOTION":15.30222708,"ECCENTRICITY":0.00042433,"INCLINATION":53.1591,"RA_OF_ASC_NODE":307.8858,"ARG_OF_PERICENTER":314.5106,"MEAN_ANOMALY":45.5548,"EPHEMERIS_TYPE":0,"CLASSIFICATION_TYPE":"U","NORAD_CAT_ID":66008,"ELEMENT_SET_NO":999,"REV_AT_EPOCH":1669,"BSTAR":0.0013253198,"MEAN_MOTION_DOT":0.00039135,"MEAN_MOTION_DDOT":0},{"OBJECT_NAME":"STARLINK-35276","OBJECT_ID":"2025-232E","EPOCH":"2026-01-24T12:31:17.224896","MEAN_MOTION":15.30253391,"ECCENTRICITY":0.00025068,"INCLINATION":53.1596,"RA_OF_ASC_NODE":309.0453,"ARG_OF_PERICENTER":297.1699,"MEAN_ANOMALY":62.9047,"EPHEMERIS_TYPE":0,"CLASSIFICATION_TYPE":"U","NORAD_CAT_ID":66009,"ELEMENT_SET_NO":999,"REV_AT_EPOCH":1665,"BSTAR":0.0019649543,"MEAN_MOTION_DOT":0.00058395,"MEAN_MOTION_DDOT":0},{"OBJECT_NAME":"STARLINK-35297","OBJECT_ID":"2025-232F","EPOCH":"2026-01-24T19:19:25.585536","MEAN_MOTION":15.30230198,"ECCENTRICITY":0.00013352,"INCLINATION":53.157,"RA_OF_ASC_NODE":307.9661,"ARG_OF_PERICENTER":105.3468,"MEAN_ANOMALY":254.768,"EPHEMERIS_TYPE":0,"CLASSIFICATION_TYPE":"U","NORAD_CAT_ID":66010,"ELEMENT_SET_NO":999,"REV_AT_EPOCH":1670,"BSTAR":0.0018333088,"MEAN_MOTION_DOT":0.00054387,"MEAN_MOTION_DDOT":0},{"OBJECT_NAME":"STARLINK-35256","OBJECT_ID":"2025-232G","EPOCH":"2026-01-24T18:20:09.811680","MEAN_MOTION":15.30217585,"ECCENTRICITY":0.00011793,"INCLINATION":53.1606,"RA_OF_ASC_NODE":307.7074,"ARG_OF_PERICENTER":101.7838,"MEAN_ANOMALY":258.3295,"EPHEMERIS_TYPE":0,"CLASSIFICATION_TYPE":"U","NORAD_CAT_ID":66011,"ELEMENT_SET_NO":999,"REV_AT_EPOCH":1671,"BSTAR":0.0012183162,"MEAN_MOTION_DOT":0.00035918,"MEAN_MOTION_DDOT":0},{"OBJECT_NAME":"STARLINK-35293","OBJECT_ID":"2025-232H","EPOCH":"2026-01-24T15:02:55.537152","MEAN_MOTION":15.3022136,"ECCENTRICITY":0.00014992,"INCLINATION":53.161,"RA_OF_ASC_NODE":308.2748,"ARG_OF_PERICENTER":255.8665,"MEAN_ANOMALY":104.2169,"EPHEMERIS_TYPE":0,"CLASSIFICATION_TYPE":"U","NORAD_CAT_ID":66012,"ELEMENT_SET_NO":999,"REV_AT_EPOCH":1669,"BSTAR":0.0010693702,"MEAN_MOTION_DOT":0.00031468,"MEAN_MOTION_DDOT":0},{"OBJECT_NAME":"STARLINK-35307","OBJECT_ID":"2025-232J","EPOCH":"2026-01-24T01:43:34.284576","MEAN_MOTION":15.30182704,"ECCENTRICITY":0.00014693,"INCLINATION":53.1587,"RA_OF_ASC_NODE":311.2131,"ARG_OF_PERICENTER":94.1014,"MEAN_ANOMALY":266.0155,"EPHEMERIS_TYPE":0,"CLASSIFICATION_TYPE":"U","NORAD_CAT_ID":66013,"ELEMENT_SET_NO":999,"REV_AT_EPOCH":1660,"BSTAR":0.002269932,"MEAN_MOTION_DOT":0.00067446,"MEAN_MOTION_DDOT":0},{"OBJECT_NAME":"STARLINK-35395","OBJECT_ID":"2025-232K","EPOCH":"2026-01-24T21:46:30.667296","MEAN_MOTION":15.30216674,"ECCENTRICITY":0.000158,"INCLINATION":53.1589,"RA_OF_ASC_NODE":307.1836,"ARG_OF_PERICENTER":11.3087,"MEAN_ANOMALY":348.7949,"EPHEMERIS_TYPE":0,"CLASSIFICATION_TYPE":"U","NORAD_CAT_ID":66014,"ELEMENT_SET_NO":999,"REV_AT_EPOCH":1673,"BSTAR":-0.00015999316,"MEAN_MOTION_DOT":-5.097e-5,"MEAN_MOTION_DDOT":0}]
